{"fetched_at":"2026-03-29T16:36:15Z","count":15609,"tles":[{"name":"STARLINK-33770","line1":"1 63906U 25095S   26087.67017401  .00023529  00000+0  86129-3 0  9993","line2":"2 63906  43.0065  68.7640 0001813 280.4498  79.6150 15.27600602 50689","category":"Starlink"}]}